TERRASAR-X              
1 31698U 07026A   26062.60485871  .00001585  00000+0  78645-4 0  9999
2 31698  97.4463  71.8125 0001741  88.9127 271.2307 15.19152000 37190
WORLDVIEW-1 (WV-1)      
1 32060U 07041A   26062.33518490  .00010393  00000+0  42669-3 0  9997
2 32060  97.3827 183.6076 0002858 153.4572 206.6812 15.24395669 26755
YAOGAN-3                
1 32289U 07055A   26062.86788183  .00001118  00000+0  12079-3 0  9998
2 32289  97.8277  93.7558 0001701  84.9994 275.1418 14.90323172990171
COSMO-SKYMED 2          
1 32376U 07059A   26062.84461722  .00000755  00000+0  10134-3 0  9990
2 32376  97.8859 247.9653 0001309  82.7963 277.3399 14.82156804986397
RADARSAT-2              
1 32382U 07061A   26062.87157476 -.00000168  00000+0 -48100-4 0  9996
2 32382  98.5811  71.2941 0001181  84.5174 275.6143 14.29980517950903
CARTOSAT-2A             
1 32783U 08021A   26062.85565581  .00001099  00000+0  15507-3 0  9992
2 32783  97.7792 115.0958 0013287  93.2426 267.0306 14.79087981963233
HUANJING 1A (HJ-1A)     
1 33320U 08041A   26062.90282730  .00001211  00000+0  15225-3 0  9993
2 33320  97.6619  52.8697 0020318 121.2942 239.0265 14.83693173942796
HUANJING 1B (HJ-1B)     
1 33321U 08041B   26062.89370836  .00001320  00000+0  16660-3 0  9992
2 33321  97.6469  56.3402 0036601 166.5355 193.6845 14.83084961942805
GEOEYE 1                
1 33331U 08042A   26062.74354223  .00000717  00000+0  14344-3 0  9996
2 33331  98.1217 138.0078 0004350  44.2772 315.8778 14.64758384934711
THEOS                   
1 33396U 08049A   26062.84820652  .00000175  00000+0  10205-3 0  9999
2 33396  98.5719 123.4918 0001020  89.5583 270.5711 14.20116220903019
COSMO-SKYMED 3          
1 33412U 08054A   26062.87352635  .00006949  00000+0  47758-3 0  9996
2 33412  97.8424 279.6608 0014728 263.6015  96.3534 15.06184313941086
YAOGAN-4                
1 33446U 08061A   26062.71484626  .00001815  00000+0  22976-3 0  9992
2 33446  97.9244 357.0636 0015647  57.2410 303.0309 14.82955886930038
GOSAT (IBUKI)           
1 33492U 09002A   26062.72894352  .00000298  00000+0  61088-4 0  9993
2 33492  98.0769 175.2055 0001424  86.5711 273.5657 14.67546083915998
DEIMOS-1                
1 35681U 09041A   26062.84678899  .00000855  00000+0  13390-3 0  9998
2 35681  97.7238 224.7230 0001954 126.1460 233.9931 14.75103869891350
DUBAISAT-1              
1 35682U 09041B   26062.33153847  .00001651  00000+0  25346-3 0  9993
2 35682  97.9862 196.8691 0011412  55.2478 304.9804 14.74884929889499
OCEANSAT-2              
1 35931U 09051A   26062.90012451  .00000047  00000+0  57847-4 0  9999
2 35931  98.2270  60.2948 0016985 168.4101 191.7459 13.99635961864602
WORLDVIEW-2 (WV-2)      
1 35946U 09055A   26062.74247972  .00000202  00000+0  81260-4 0  9998
2 35946  98.4704 137.6927 0004725 160.9386 199.1979 14.37907627860495
