[{"OBJECT_NAME":"TERRASAR-X","OBJECT_ID":"2007-026A","EPOCH":"2026-03-03T14:30:59.792544","MEAN_MOTION":15.19152,"ECCENTRICITY":0.0001741,"INCLINATION":97.4463,"RA_OF_ASC_NODE":71.8125,"ARG_OF_PERICENTER":88.9127,"MEAN_ANOMALY":271.2307,"EPHEMERIS_TYPE":0,"CLASSIFICATION_TYPE":"U","NORAD_CAT_ID":31698,"ELEMENT_SET_NO":999,"REV_AT_EPOCH":3719,"BSTAR":7.8645e-5,"MEAN_MOTION_DOT":1.585e-5,"MEAN_MOTION_DDOT":0},{"OBJECT_NAME":"WORLDVIEW-1 (WV-1)","OBJECT_ID":"2007-041A","EPOCH":"2026-03-03T08:02:39.975360","MEAN_MOTION":15.24395669,"ECCENTRICITY":0.00028587,"INCLINATION":97.3827,"RA_OF_ASC_NODE":183.6076,"ARG_OF_PERICENTER":153.4572,"MEAN_ANOMALY":206.6812,"EPHEMERIS_TYPE":0,"CLASSIFICATION_TYPE":"U","NORAD_CAT_ID":32060,"ELEMENT_SET_NO":999,"REV_AT_EPOCH":2675,"BSTAR":0.00042669342,"MEAN_MOTION_DOT":0.00010393,"MEAN_MOTION_DDOT":0},{"OBJECT_NAME":"YAOGAN-3","OBJECT_ID":"2007-055A","EPOCH":"2026-03-03T20:49:44.990112","MEAN_MOTION":14.90323172,"ECCENTRICITY":0.0001701,"INCLINATION":97.8277,"RA_OF_ASC_NODE":93.7558,"ARG_OF_PERICENTER":84.9994,"MEAN_ANOMALY":275.1418,"EPHEMERIS_TYPE":0,"CLASSIFICATION_TYPE":"U","NORAD_CAT_ID":32289,"ELEMENT_SET_NO":999,"REV_AT_EPOCH":99017,"BSTAR":0.00012079,"MEAN_MOTION_DOT":1.118e-5,"MEAN_MOTION_DDOT":0},{"OBJECT_NAME":"COSMO-SKYMED 2","OBJECT_ID":"2007-059A","EPOCH":"2026-03-03T20:16:14.927808","MEAN_MOTION":14.82156804,"ECCENTRICITY":0.0001309,"INCLINATION":97.8859,"RA_OF_ASC_NODE":247.9653,"ARG_OF_PERICENTER":82.7963,"MEAN_ANOMALY":277.3399,"EPHEMERIS_TYPE":0,"CLASSIFICATION_TYPE":"U","NORAD_CAT_ID":32376,"ELEMENT_SET_NO":999,"REV_AT_EPOCH":98639,"BSTAR":0.00010134,"MEAN_MOTION_DOT":7.55e-6,"MEAN_MOTION_DDOT":0},{"OBJECT_NAME":"RADARSAT-2","OBJECT_ID":"2007-061A","EPOCH":"2026-03-03T20:55:04.059264","MEAN_MOTION":14.29980517,"ECCENTRICITY":0.0001181,"INCLINATION":98.5811,"RA_OF_ASC_NODE":71.2941,"ARG_OF_PERICENTER":84.5174,"MEAN_ANOMALY":275.6143,"EPHEMERIS_TYPE":0,"CLASSIFICATION_TYPE":"U","NORAD_CAT_ID":32382,"ELEMENT_SET_NO":999,"REV_AT_EPOCH":95090,"BSTAR":-4.81e-5,"MEAN_MOTION_DOT":-1.68e-6,"MEAN_MOTION_DDOT":0},{"OBJECT_NAME":"CARTOSAT-2A","OBJECT_ID":"2008-021A","EPOCH":"2026-03-03T20:32:08.661984","MEAN_MOTION":14.79087981,"ECCENTRICITY":0.0013287,"INCLINATION":97.7792,"RA_OF_ASC_NODE":115.0958,"ARG_OF_PERICENTER":93.2426,"MEAN_ANOMALY":267.0306,"EPHEMERIS_TYPE":0,"CLASSIFICATION_TYPE":"U","NORAD_CAT_ID":32783,"ELEMENT_SET_NO":999,"REV_AT_EPOCH":96323,"BSTAR":0.00015507,"MEAN_MOTION_DOT":1.099e-5,"MEAN_MOTION_DDOT":0},{"OBJECT_NAME":"HUANJING 1A (HJ-1A)","OBJECT_ID":"2008-041A","EPOCH":"2026-03-03T21:40:04.278720","MEAN_MOTION":14.83693173,"ECCENTRICITY":0.0020318,"INCLINATION":97.6619,"RA_OF_ASC_NODE":52.8697,"ARG_OF_PERICENTER":121.2942,"MEAN_ANOMALY":239.0265,"EPHEMERIS_TYPE":0,"CLASSIFICATION_TYPE":"U","NORAD_CAT_ID":33320,"ELEMENT_SET_NO":999,"REV_AT_EPOCH":94279,"BSTAR":0.00015225,"MEAN_MOTION_DOT":1.211e-5,"MEAN_MOTION_DDOT":0},{"OBJECT_NAME":"HUANJING 1B (HJ-1B)","OBJECT_ID":"2008-041B","EPOCH":"2026-03-03T21:26:56.402304","MEAN_MOTION":14.83084961,"ECCENTRICITY":0.0036601,"INCLINATION":97.6469,"RA_OF_ASC_NODE":56.3402,"ARG_OF_PERICENTER":166.5355,"MEAN_ANOMALY":193.6845,"EPHEMERIS_TYPE":0,"CLASSIFICATION_TYPE":"U","NORAD_CAT_ID":33321,"ELEMENT_SET_NO":999,"REV_AT_EPOCH":94280,"BSTAR":0.0001666,"MEAN_MOTION_DOT":1.32e-5,"MEAN_MOTION_DDOT":0},{"OBJECT_NAME":"GEOEYE 1","OBJECT_ID":"2008-042A","EPOCH":"2026-03-03T17:50:42.048672","MEAN_MOTION":14.64758384,"ECCENTRICITY":0.000435,"INCLINATION":98.1217,"RA_OF_ASC_NODE":138.0078,"ARG_OF_PERICENTER":44.2772,"MEAN_ANOMALY":315.8778,"EPHEMERIS_TYPE":0,"CLASSIFICATION_TYPE":"U","NORAD_CAT_ID":33331,"ELEMENT_SET_NO":999,"REV_AT_EPOCH":93471,"BSTAR":0.00014344,"MEAN_MOTION_DOT":7.17e-6,"MEAN_MOTION_DDOT":0},{"OBJECT_NAME":"THEOS","OBJECT_ID":"2008-049A","EPOCH":"2026-03-03T20:21:25.043328","MEAN_MOTION":14.2011622,"ECCENTRICITY":0.000102,"INCLINATION":98.5719,"RA_OF_ASC_NODE":123.4918,"ARG_OF_PERICENTER":89.5583,"MEAN_ANOMALY":270.5711,"EPHEMERIS_TYPE":0,"CLASSIFICATION_TYPE":"U","NORAD_CAT_ID":33396,"ELEMENT_SET_NO":999,"REV_AT_EPOCH":90301,"BSTAR":0.00010205,"MEAN_MOTION_DOT":1.75e-6,"MEAN_MOTION_DDOT":0},{"OBJECT_NAME":"COSMO-SKYMED 3","OBJECT_ID":"2008-054A","EPOCH":"2026-03-03T20:57:52.676640","MEAN_MOTION":15.06184313,"ECCENTRICITY":0.0014728,"INCLINATION":97.8424,"RA_OF_ASC_NODE":279.6608,"ARG_OF_PERICENTER":263.6015,"MEAN_ANOMALY":96.3534,"EPHEMERIS_TYPE":0,"CLASSIFICATION_TYPE":"U","NORAD_CAT_ID":33412,"ELEMENT_SET_NO":999,"REV_AT_EPOCH":94108,"BSTAR":0.00047758,"MEAN_MOTION_DOT":6.949e-5,"MEAN_MOTION_DDOT":0},{"OBJECT_NAME":"YAOGAN-4","OBJECT_ID":"2008-061A","EPOCH":"2026-03-03T17:09:22.716864","MEAN_MOTION":14.82955886,"ECCENTRICITY":0.0015647,"INCLINATION":97.9244,"RA_OF_ASC_NODE":357.0636,"ARG_OF_PERICENTER":57.241,"MEAN_ANOMALY":303.0309,"EPHEMERIS_TYPE":0,"CLASSIFICATION_TYPE":"U","NORAD_CAT_ID":33446,"ELEMENT_SET_NO":999,"REV_AT_EPOCH":93003,"BSTAR":0.00022976,"MEAN_MOTION_DOT":1.815e-5,"MEAN_MOTION_DDOT":0},{"OBJECT_NAME":"GOSAT (IBUKI)","OBJECT_ID":"2009-002A","EPOCH":"2026-03-03T17:29:40.720128","MEAN_MOTION":14.67546083,"ECCENTRICITY":0.0001424,"INCLINATION":98.0769,"RA_OF_ASC_NODE":175.2055,"ARG_OF_PERICENTER":86.5711,"MEAN_ANOMALY":273.5657,"EPHEMERIS_TYPE":0,"CLASSIFICATION_TYPE":"U","NORAD_CAT_ID":33492,"ELEMENT_SET_NO":999,"REV_AT_EPOCH":91599,"BSTAR":6.1088e-5,"MEAN_MOTION_DOT":2.98e-6,"MEAN_MOTION_DDOT":0},{"OBJECT_NAME":"DEIMOS-1","OBJECT_ID":"2009-041A","EPOCH":"2026-03-03T20:19:22.568736","MEAN_MOTION":14.75103869,"ECCENTRICITY":0.0001954,"INCLINATION":97.7238,"RA_OF_ASC_NODE":224.723,"ARG_OF_PERICENTER":126.146,"MEAN_ANOMALY":233.9931,"EPHEMERIS_TYPE":0,"CLASSIFICATION_TYPE":"U","NORAD_CAT_ID":35681,"ELEMENT_SET_NO":999,"REV_AT_EPOCH":89135,"BSTAR":0.0001339,"MEAN_MOTION_DOT":8.55e-6,"MEAN_MOTION_DDOT":0},{"OBJECT_NAME":"DUBAISAT-1","OBJECT_ID":"2009-041B","EPOCH":"2026-03-03T07:57:24.923808","MEAN_MOTION":14.74884929,"ECCENTRICITY":0.0011412,"INCLINATION":97.9862,"RA_OF_ASC_NODE":196.8691,"ARG_OF_PERICENTER":55.2478,"MEAN_ANOMALY":304.9804,"EPHEMERIS_TYPE":0,"CLASSIFICATION_TYPE":"U","NORAD_CAT_ID":35682,"ELEMENT_SET_NO":999,"REV_AT_EPOCH":88949,"BSTAR":0.00025346139,"MEAN_MOTION_DOT":1.651e-5,"MEAN_MOTION_DDOT":0},{"OBJECT_NAME":"OCEANSAT-2","OBJECT_ID":"2009-051A","EPOCH":"2026-03-03T21:36:10.757664","MEAN_MOTION":13.99635961,"ECCENTRICITY":0.0016985,"INCLINATION":98.227,"RA_OF_ASC_NODE":60.2948,"ARG_OF_PERICENTER":168.4101,"MEAN_ANOMALY":191.7459,"EPHEMERIS_TYPE":0,"CLASSIFICATION_TYPE":"U","NORAD_CAT_ID":35931,"ELEMENT_SET_NO":999,"REV_AT_EPOCH":86460,"BSTAR":5.7847e-5,"MEAN_MOTION_DOT":4.7e-7,"MEAN_MOTION_DDOT":0},{"OBJECT_NAME":"WORLDVIEW-2 (WV-2)","OBJECT_ID":"2009-055A","EPOCH":"2026-03-03T17:49:10.247808","MEAN_MOTION":14.37907627,"ECCENTRICITY":0.0004725,"INCLINATION":98.4704,"RA_OF_ASC_NODE":137.6927,"ARG_OF_PERICENTER":160.9386,"MEAN_ANOMALY":199.1979,"EPHEMERIS_TYPE":0,"CLASSIFICATION_TYPE":"U","NORAD_CAT_ID":35946,"ELEMENT_SET_NO":999,"REV_AT_EPOCH":86049,"BSTAR":8.126e-5,"MEAN_MOTION_DOT":2.02e-6,"MEAN_MOTION_DDOT":0}]
